[{"OBJECT_NAME":"FLOCK 4BE-17","OBJECT_ID":"2024-149AA","EPOCH":"2026-03-04T05:22:57.244224","MEAN_MOTION":15.36413983,"ECCENTRICITY":0.00020534,"INCLINATION":97.3834,"RA_OF_ASC_NODE":146.001,"ARG_OF_PERICENTER":259.7334,"MEAN_ANOMALY":100.3679,"EPHEMERIS_TYPE":0,"CLASSIFICATION_TYPE":"U","NORAD_CAT_ID":60492,"ELEMENT_SET_NO":999,"REV_AT_EPOCH":8612,"BSTAR":0.00071948517,"MEAN_MOTION_DOT":0.0002553,"MEAN_MOTION_DDOT":0},{"OBJECT_NAME":"FLOCK 4BE-22","OBJECT_ID":"2024-149AC","EPOCH":"2026-03-04T03:54:53.042688","MEAN_MOTION":15.37463328,"ECCENTRICITY":0.00027235,"INCLINATION":97.3786,"RA_OF_ASC_NODE":145.9856,"ARG_OF_PERICENTER":287.5242,"MEAN_ANOMALY":72.5705,"EPHEMERIS_TYPE":0,"CLASSIFICATION_TYPE":"U","NORAD_CAT_ID":60494,"ELEMENT_SET_NO":999,"REV_AT_EPOCH":8614,"BSTAR":0.00081239559,"MEAN_MOTION_DOT":0.00029846,"MEAN_MOTION_DDOT":0},{"OBJECT_NAME":"FLOCK 4BE-34","OBJECT_ID":"2024-149AD","EPOCH":"2026-03-04T12:16:33.557664","MEAN_MOTION":15.37765837,"ECCENTRICITY":0.0002286,"INCLINATION":97.3832,"RA_OF_ASC_NODE":147.0794,"ARG_OF_PERICENTER":288.1903,"MEAN_ANOMALY":71.9092,"EPHEMERIS_TYPE":0,"CLASSIFICATION_TYPE":"U","NORAD_CAT_ID":60495,"ELEMENT_SET_NO":999,"REV_AT_EPOCH":8622,"BSTAR":0.00064414771,"MEAN_MOTION_DOT":0.00023861,"MEAN_MOTION_DDOT":0},{"OBJECT_NAME":"FLOCK 4BE-32","OBJECT_ID":"2024-149AF","EPOCH":"2026-03-04T12:44:53.534688","MEAN_MOTION":15.38211678,"ECCENTRICITY":0.000263,"INCLINATION":97.3774,"RA_OF_ASC_NODE":146.6054,"ARG_OF_PERICENTER":286.0727,"MEAN_ANOMALY":74.0228,"EPHEMERIS_TYPE":0,"CLASSIFICATION_TYPE":"U","NORAD_CAT_ID":60497,"ELEMENT_SET_NO":999,"REV_AT_EPOCH":8622,"BSTAR":0.00070179297,"MEAN_MOTION_DOT":0.00026392,"MEAN_MOTION_DDOT":0},{"OBJECT_NAME":"FLOCK 4BE-30","OBJECT_ID":"2024-149AH","EPOCH":"2026-03-04T11:26:24.612000","MEAN_MOTION":15.3803457,"ECCENTRICITY":0.00020277,"INCLINATION":97.3853,"RA_OF_ASC_NODE":147.1087,"ARG_OF_PERICENTER":288.7812,"MEAN_ANOMALY":71.3212,"EPHEMERIS_TYPE":0,"CLASSIFICATION_TYPE":"U","NORAD_CAT_ID":60499,"ELEMENT_SET_NO":999,"REV_AT_EPOCH":8559,"BSTAR":0.00068343538,"MEAN_MOTION_DOT":0.00025548,"MEAN_MOTION_DDOT":0},{"OBJECT_NAME":"FLOCK 4BE-11","OBJECT_ID":"2024-149AK","EPOCH":"2026-03-04T04:36:50.937408","MEAN_MOTION":15.39013801,"ECCENTRICITY":0.0003055,"INCLINATION":97.3757,"RA_OF_ASC_NODE":146.3903,"ARG_OF_PERICENTER":289.955,"MEAN_ANOMALY":70.1366,"EPHEMERIS_TYPE":0,"CLASSIFICATION_TYPE":"U","NORAD_CAT_ID":60501,"ELEMENT_SET_NO":999,"REV_AT_EPOCH":8618,"BSTAR":0.00085105546,"MEAN_MOTION_DOT":0.00032899,"MEAN_MOTION_DDOT":0},{"OBJECT_NAME":"FLOCK 4BE-24","OBJECT_ID":"2024-149AP","EPOCH":"2026-03-04T04:09:39.962016","MEAN_MOTION":15.38877718,"ECCENTRICITY":0.00029195,"INCLINATION":97.3772,"RA_OF_ASC_NODE":146.6176,"ARG_OF_PERICENTER":300.0043,"MEAN_ANOMALY":60.0912,"EPHEMERIS_TYPE":0,"CLASSIFICATION_TYPE":"U","NORAD_CAT_ID":60505,"ELEMENT_SET_NO":999,"REV_AT_EPOCH":8619,"BSTAR":0.00079437812,"MEAN_MOTION_DOT":0.00030556,"MEAN_MOTION_DDOT":0},{"OBJECT_NAME":"TANAGER-1","OBJECT_ID":"2024-149AR","EPOCH":"2026-03-04T05:56:41.367264","MEAN_MOTION":15.43636846,"ECCENTRICITY":0.00067338,"INCLINATION":97.3773,"RA_OF_ASC_NODE":156.5482,"ARG_OF_PERICENTER":216.0341,"MEAN_ANOMALY":144.0453,"EPHEMERIS_TYPE":0,"CLASSIFICATION_TYPE":"U","NORAD_CAT_ID":60507,"ELEMENT_SET_NO":999,"REV_AT_EPOCH":8684,"BSTAR":0.00014009977,"MEAN_MOTION_DOT":6.222e-5,"MEAN_MOTION_DDOT":0},{"OBJECT_NAME":"FLOCK 4BE-29","OBJECT_ID":"2024-149AT","EPOCH":"2026-03-04T04:54:38.090592","MEAN_MOTION":15.40144487,"ECCENTRICITY":0.00020115,"INCLINATION":97.3857,"RA_OF_ASC_NODE":147.7793,"ARG_OF_PERICENTER":319.5332,"MEAN_ANOMALY":40.5765,"EPHEMERIS_TYPE":0,"CLASSIFICATION_TYPE":"U","NORAD_CAT_ID":60509,"ELEMENT_SET_NO":999,"REV_AT_EPOCH":8623,"BSTAR":0.00083286444,"MEAN_MOTION_DOT":0.00033408,"MEAN_MOTION_DDOT":0},{"OBJECT_NAME":"FLOCK 4BE-2","OBJECT_ID":"2024-149AV","EPOCH":"2026-03-04T04:21:37.764576","MEAN_MOTION":15.42621435,"ECCENTRICITY":0.00026591,"INCLINATION":97.3859,"RA_OF_ASC_NODE":148.3129,"ARG_OF_PERICENTER":296.9873,"MEAN_ANOMALY":63.1102,"EPHEMERIS_TYPE":0,"CLASSIFICATION_TYPE":"U","NORAD_CAT_ID":60511,"ELEMENT_SET_NO":999,"REV_AT_EPOCH":8626,"BSTAR":0.0014702851,"MEAN_MOTION_DOT":0.00064348,"MEAN_MOTION_DDOT":0},{"OBJECT_NAME":"FLOCK 4BE-13","OBJECT_ID":"2024-149AW","EPOCH":"2026-03-04T04:17:08.149920","MEAN_MOTION":15.385685,"ECCENTRICITY":0.00034848,"INCLINATION":97.3772,"RA_OF_ASC_NODE":146.7264,"ARG_OF_PERICENTER":291.4274,"MEAN_ANOMALY":68.6599,"EPHEMERIS_TYPE":0,"CLASSIFICATION_TYPE":"U","NORAD_CAT_ID":60512,"ELEMENT_SET_NO":999,"REV_AT_EPOCH":8620,"BSTAR":0.00079015424,"MEAN_MOTION_DOT":0.00030089,"MEAN_MOTION_DDOT":0},{"OBJECT_NAME":"FLOCK 4BE-27","OBJECT_ID":"2024-149AX","EPOCH":"2026-03-04T12:43:00.374880","MEAN_MOTION":15.32453205,"ECCENTRICITY":0.00029701,"INCLINATION":97.3877,"RA_OF_ASC_NODE":145.4639,"ARG_OF_PERICENTER":332.4022,"MEAN_ANOMALY":27.7062,"EPHEMERIS_TYPE":0,"CLASSIFICATION_TYPE":"U","NORAD_CAT_ID":60513,"ELEMENT_SET_NO":999,"REV_AT_EPOCH":8610,"BSTAR":0.00048398909,"MEAN_MOTION_DOT":0.00015103,"MEAN_MOTION_DDOT":0},{"OBJECT_NAME":"FLOCK 4BE-9","OBJECT_ID":"2024-149AY","EPOCH":"2026-03-04T05:23:35.212704","MEAN_MOTION":15.37359515,"ECCENTRICITY":0.00017014,"INCLINATION":97.3842,"RA_OF_ASC_NODE":146.7258,"ARG_OF_PERICENTER":329.8816,"MEAN_ANOMALY":30.233,"EPHEMERIS_TYPE":0,"CLASSIFICATION_TYPE":"U","NORAD_CAT_ID":60514,"ELEMENT_SET_NO":999,"REV_AT_EPOCH":8617,"BSTAR":0.00071896269,"MEAN_MOTION_DOT":0.00026302,"MEAN_MOTION_DDOT":0},{"OBJECT_NAME":"FLOCK 4BE-6","OBJECT_ID":"2024-149BA","EPOCH":"2026-03-04T04:18:58.311648","MEAN_MOTION":15.36403979,"ECCENTRICITY":0.00023375,"INCLINATION":97.3844,"RA_OF_ASC_NODE":146.2139,"ARG_OF_PERICENTER":318.482,"MEAN_ANOMALY":41.6247,"EPHEMERIS_TYPE":0,"CLASSIFICATION_TYPE":"U","NORAD_CAT_ID":60516,"ELEMENT_SET_NO":999,"REV_AT_EPOCH":8613,"BSTAR":0.00069000622,"MEAN_MOTION_DOT":0.0002447,"MEAN_MOTION_DDOT":0},{"OBJECT_NAME":"FLOCK 4BE-14","OBJECT_ID":"2024-149BB","EPOCH":"2026-03-04T04:22:24.011904","MEAN_MOTION":15.37441228,"ECCENTRICITY":0.00032435,"INCLINATION":97.3758,"RA_OF_ASC_NODE":146.2866,"ARG_OF_PERICENTER":314.5846,"MEAN_ANOMALY":45.5134,"EPHEMERIS_TYPE":0,"CLASSIFICATION_TYPE":"U","NORAD_CAT_ID":60517,"ELEMENT_SET_NO":999,"REV_AT_EPOCH":8617,"BSTAR":0.00073874345,"MEAN_MOTION_DOT":0.00027105,"MEAN_MOTION_DDOT":0},{"OBJECT_NAME":"FLOCK 4BE-1","OBJECT_ID":"2024-149BC","EPOCH":"2026-03-04T04:02:26.769696","MEAN_MOTION":15.38702415,"ECCENTRICITY":0.00031268,"INCLINATION":97.3831,"RA_OF_ASC_NODE":147.2007,"ARG_OF_PERICENTER":310.6203,"MEAN_ANOMALY":49.477,"EPHEMERIS_TYPE":0,"CLASSIFICATION_TYPE":"U","NORAD_CAT_ID":60518,"ELEMENT_SET_NO":999,"REV_AT_EPOCH":8620,"BSTAR":0.00076767597,"MEAN_MOTION_DOT":0.00029354,"MEAN_MOTION_DDOT":0}]
