FLOCK 4BE-17            
1 60492U 24149AA  26063.22427366  .00025530  00000+0  71949-3 0  9997
2 60492  97.3834 146.0010 0002053 259.7334 100.3679 15.36413983 86128
FLOCK 4BE-22            
1 60494U 24149AC  26063.16311392  .00029846  00000+0  81240-3 0  9992
2 60494  97.3786 145.9856 0002723 287.5242  72.5705 15.37463328 86144
FLOCK 4BE-34            
1 60495U 24149AD  26063.51149951  .00023861  00000+0  64415-3 0  9998
2 60495  97.3832 147.0794 0002286 288.1903  71.9092 15.37765837 86227
FLOCK 4BE-32            
1 60497U 24149AF  26063.53117517  .00026392  00000+0  70179-3 0  9991
2 60497  97.3774 146.6054 0002630 286.0727  74.0228 15.38211678 86227
FLOCK 4BE-30            
1 60499U 24149AH  26063.47667375  .00025548  00000+0  68344-3 0  9991
2 60499  97.3853 147.1087 0002027 288.7812  71.3212 15.38034570 85599
FLOCK 4BE-11            
1 60501U 24149AK  26063.19225622  .00032899  00000+0  85106-3 0  9991
2 60501  97.3757 146.3903 0003055 289.9550  70.1366 15.39013801 86186
FLOCK 4BE-24            
1 60505U 24149AP  26063.17337919  .00030556  00000+0  79438-3 0  9995
2 60505  97.3772 146.6176 0002919 300.0043  60.0912 15.38877718 86192
TANAGER-1               
1 60507U 24149AR  26063.24770101  .00006222  00000+0  14010-3 0  9997
2 60507  97.3773 156.5482 0006733 216.0341 144.0453 15.43636846 86846
FLOCK 4BE-29            
1 60509U 24149AT  26063.20460753  .00033408  00000+0  83286-3 0  9991
2 60509  97.3857 147.7793 0002011 319.5332  40.5765 15.40144487 86233
FLOCK 4BE-2             
1 60511U 24149AV  26063.18168709  .00064348  00000+0  14703-2 0  9991
2 60511  97.3859 148.3129 0002659 296.9873  63.1102 15.42621435 86268
FLOCK 4BE-13            
1 60512U 24149AW  26063.17856655  .00030089  00000+0  79015-3 0  9998
2 60512  97.3772 146.7264 0003484 291.4274  68.6599 15.38568500 86209
FLOCK 4BE-27            
1 60513U 24149AX  26063.52986545  .00015103  00000+0  48399-3 0  9991
2 60513  97.3877 145.4639 0002970 332.4022  27.7062 15.32453205 86103
FLOCK 4BE-9             
1 60514U 24149AY  26063.22471311  .00026302  00000+0  71896-3 0  9990
2 60514  97.3842 146.7258 0001701 329.8816  30.2330 15.37359515 86177
FLOCK 4BE-6             
1 60516U 24149BA  26063.17984157  .00024470  00000+0  69001-3 0  9992
2 60516  97.3844 146.2139 0002337 318.4820  41.6247 15.36403979 86131
FLOCK 4BE-14            
1 60517U 24149BB  26063.18222236  .00027105  00000+0  73874-3 0  9998
2 60517  97.3758 146.2866 0003243 314.5846  45.5134 15.37441228 86177
FLOCK 4BE-1             
1 60518U 24149BC  26063.16836539  .00029354  00000+0  76768-3 0  9997
2 60518  97.3831 147.2007 0003126 310.6203  49.4770 15.38702415 86204
